start=new Date('2022-12-06T00:00:00.000Z').valueOf();
sats=[{"ARG_OF_PERICENTER":"35.2390","MEAN_ANOMALY":"311.1854","SEMIMAJOR_AXIS":"6917.756","MEAN_MOTION_DDOT":"0.0000000000000","REF_FRAME":"TEME","PERIAPSIS":"538.229","OBJECT_NAME":"STARLINK-5044","PERIOD":"95.435","OBJECT_ID":"2022-119N","MEAN_MOTION":"15.08880610","BSTAR":"-0.00330770000000","MEAN_ELEMENT_THEORY":"SGP4","MEAN_MOTION_DOT":"-0.00052606","NORAD_CAT_ID":"53898","ECCENTRICITY":"0.00020130","TLE_LINE2":"2 53898  53.2149 264.9279 0002013  35.2390 311.1854 15.08880610 11659","RA_OF_ASC_NODE":"264.9279","CLASSIFICATION_TYPE":"U","CENTER_NAME":"EARTH","APOAPSIS":"541.014","EPHEMERIS_TYPE":"0","INCLINATION":"53.2149","DECAY_DATE":null,"COUNTRY_CODE":"US","TLE_LINE1":"1 53898U 22119N   22339.91668981 -.00052606  00000-0 -33077-2 0  9998","REV_AT_EPOCH":"1165","EPOCH":"2022-12-05T22:00:01.999584","RCS_SIZE":"LARGE","LAUNCH_DATE":"2022-09-24","OBJECT_TYPE":"PAYLOAD","GP_ID":"219598974","TIME_SYSTEM":"UTC","ELEMENT_SET_NO":"999","SITE":"AFETR","FILE":"3682169"},{"OBJECT_TYPE":"PAYLOAD","GP_ID":"219598988","LAUNCH_DATE":"2022-09-24","RCS_SIZE":"LARGE","FILE":"3682170","TIME_SYSTEM":"UTC","ELEMENT_SET_NO":"999","SITE":"AFETR","DECAY_DATE":null,"INCLINATION":"53.2141","EPHEMERIS_TYPE":"0","APOAPSIS":"541.488","EPOCH":"2022-12-05T16:00:00.999936","REV_AT_EPOCH":"1161","TLE_LINE1":"1 53899U 22119P   22339.66667824  .00062535  00000-0  39157-2 0  9991","COUNTRY_CODE":"US","ECCENTRICITY":"0.00023910","MEAN_MOTION_DOT":"0.00062535","MEAN_ELEMENT_THEORY":"SGP4","NORAD_CAT_ID":"53899","CENTER_NAME":"EARTH","CLASSIFICATION_TYPE":"U","RA_OF_ASC_NODE":"266.0918","TLE_LINE2":"2 53899  53.2141 266.0918 0002391  49.5579 358.1032 15.08811091 11613","SEMIMAJOR_AXIS":"6917.969","ARG_OF_PERICENTER":"49.5579","MEAN_ANOMALY":"358.1032","OBJECT_ID":"2022-119P","BSTAR":"0.00391570000000","MEAN_MOTION":"15.08811091","PERIAPSIS":"538.180","OBJECT_NAME":"STARLINK-5042","REF_FRAME":"TEME","MEAN_MOTION_DDOT":"0.0000000000000","PERIOD":"95.439"},{"EPOCH":"2022-12-05T22:00:01.999584","COUNTRY_CODE":"US","TLE_LINE1":"1 53900U 22119Q   22339.91668981 -.00015031  00000-0 -92796-3 0  9997","REV_AT_EPOCH":"130","DECAY_DATE":null,"EPHEMERIS_TYPE":"0","INCLINATION":"53.2150","APOAPSIS":"540.570","FILE":"3682465","TIME_SYSTEM":"UTC","ELEMENT_SET_NO":"999","SITE":"AFETR","OBJECT_TYPE":"PAYLOAD","GP_ID":"219628800","LAUNCH_DATE":"2022-09-24","RCS_SIZE":"LARGE","OBJECT_ID":"2022-119Q","BSTAR":"-0.00092796000000","MEAN_MOTION":"15.08852521","OBJECT_NAME":"STARLINK-5045","PERIAPSIS":"538.844","MEAN_MOTION_DDOT":"0.0000000000000","REF_FRAME":"TEME","PERIOD":"95.437","SEMIMAJOR_AXIS":"6917.842","ARG_OF_PERICENTER":"84.3702","MEAN_ANOMALY":"302.1245","CENTER_NAME":"EARTH","CLASSIFICATION_TYPE":"U","RA_OF_ASC_NODE":"264.8527","TLE_LINE2":"2 53900  53.2150 264.8527 0001247  84.3702 302.1245 15.08852521  1305","ECCENTRICITY":"0.00012470","MEAN_MOTION_DOT":"-0.00015031","MEAN_ELEMENT_THEORY":"SGP4","NORAD_CAT_ID":"53900"},{"APOAPSIS":"540.870","DECAY_DATE":null,"INCLINATION":"53.2165","EPHEMERIS_TYPE":"0","REV_AT_EPOCH":"130","TLE_LINE1":"1 53901U 22119R   22339.66667824  .00033804  00000-0  21327-2 0  9992","COUNTRY_CODE":"US","EPOCH":"2022-12-05T16:00:00.999936","LAUNCH_DATE":"2022-09-24","RCS_SIZE":"LARGE","GP_ID":"219629408","OBJECT_TYPE":"PAYLOAD","ELEMENT_SET_NO":"999","SITE":"AFETR","TIME_SYSTEM":"UTC","FILE":"3682465","MEAN_ANOMALY":"339.0975","ARG_OF_PERICENTER":"48.4964","SEMIMAJOR_AXIS":"6917.924","PERIOD":"95.438","PERIAPSIS":"538.709","OBJECT_NAME":"STARLINK-5024","REF_FRAME":"TEME","MEAN_MOTION_DDOT":"0.0000000000000","BSTAR":"0.00213270000000","MEAN_MOTION":"15.08825639","OBJECT_ID":"2022-119R","NORAD_CAT_ID":"53901","MEAN_ELEMENT_THEORY":"SGP4","MEAN_MOTION_DOT":"0.00033804","ECCENTRICITY":"0.00015620","RA_OF_ASC_NODE":"266.1359","TLE_LINE2":"2 53901  53.2165 266.1359 0001562  48.4964 339.0975 15.08825639  1300","CENTER_NAME":"EARTH","CLASSIFICATION_TYPE":"U"},{"SITE":"AFETR","ELEMENT_SET_NO":"999","TIME_SYSTEM":"UTC","FILE":"3682465","RCS_SIZE":"LARGE","LAUNCH_DATE":"2022-09-24","GP_ID":"219630169","OBJECT_TYPE":"PAYLOAD","TLE_LINE1":"1 53902U 22119S   22339.75051156  .00004100  00000-0  33610-4 0  9995","COUNTRY_CODE":"US","REV_AT_EPOCH":"1216","EPOCH":"2022-12-05T18:00:44.198784","APOAPSIS":"355.463","EPHEMERIS_TYPE":"0","INCLINATION":"53.2154","DECAY_DATE":null,"TLE_LINE2":"2 53902  53.2154 257.3947 0008544 289.4485  70.5611 15.73215790 12169","RA_OF_ASC_NODE":"257.3947","CLASSIFICATION_TYPE":"U","CENTER_NAME":"EARTH","NORAD_CAT_ID":"53902","MEAN_MOTION_DOT":"0.00004100","MEAN_ELEMENT_THEORY":"SGP4","ECCENTRICITY":"0.00085440","PERIOD":"91.532","REF_FRAME":"TEME","MEAN_MOTION_DDOT":"0.0000000000000","PERIAPSIS":"343.967","OBJECT_NAME":"STARLINK-5021","MEAN_MOTION":"15.73215790","BSTAR":"0.00003361000000","OBJECT_ID":"2022-119S","MEAN_ANOMALY":"70.5611","ARG_OF_PERICENTER":"289.4485","SEMIMAJOR_AXIS":"6727.850"},{"TIME_SYSTEM":"UTC","ELEMENT_SET_NO":"999","SITE":"AFETR","FILE":"3682171","LAUNCH_DATE":"2022-09-24","RCS_SIZE":"LARGE","OBJECT_TYPE":"PAYLOAD","GP_ID":"219599005","TLE_LINE1":"1 53903U 22119T   22339.91668981 -.00021007  00000-0 -13046-2 0  9990","COUNTRY_CODE":"US","REV_AT_EPOCH":"1165","EPOCH":"2022-12-05T22:00:01.999584","APOAPSIS":"540.916","DECAY_DATE":null,"EPHEMERIS_TYPE":"0","INCLINATION":"53.2167","RA_OF_ASC_NODE":"264.8973","TLE_LINE2":"2 53903  53.2167 264.8973 0001817  49.9818 316.4005 15.08868236 11650","CENTER_NAME":"EARTH","CLASSIFICATION_TYPE":"U","MEAN_ELEMENT_THEORY":"SGP4","MEAN_MOTION_DOT":"-0.00021007","NORAD_CAT_ID":"53903","ECCENTRICITY":"0.00018170","PERIAPSIS":"538.402","OBJECT_NAME":"STARLINK-5022","REF_FRAME":"TEME","MEAN_MOTION_DDOT":"0.0000000000000","PERIOD":"95.436","OBJECT_ID":"2022-119T","BSTAR":"-0.00130460000000","MEAN_MOTION":"15.08868236","ARG_OF_PERICENTER":"49.9818","MEAN_ANOMALY":"316.4005","SEMIMAJOR_AXIS":"6917.794"},{"ECCENTRICITY":"0.00017390","MEAN_ELEMENT_THEORY":"SGP4","MEAN_MOTION_DOT":"-0.00013897","NORAD_CAT_ID":"53904","CENTER_NAME":"EARTH","CLASSIFICATION_TYPE":"U","RA_OF_ASC_NODE":"264.8166","TLE_LINE2":"2 53904  53.2156 264.8166 0001739  52.6369 353.7066 15.08859268  1305","SEMIMAJOR_AXIS":"6917.821","ARG_OF_PERICENTER":"52.6369","MEAN_ANOMALY":"353.7066","OBJECT_ID":"2022-119U","BSTAR":"-0.00085627000000","MEAN_MOTION":"15.08859268","OBJECT_NAME":"STARLINK-4787","PERIAPSIS":"538.483","REF_FRAME":"TEME","MEAN_MOTION_DDOT":"0.0000000000000","PERIOD":"95.436","OBJECT_TYPE":"PAYLOAD","GP_ID":"219629212","LAUNCH_DATE":"2022-09-24","RCS_SIZE":"LARGE","FILE":"3682465","TIME_SYSTEM":"UTC","ELEMENT_SET_NO":"999","SITE":"AFETR","DECAY_DATE":null,"EPHEMERIS_TYPE":"0","INCLINATION":"53.2156","APOAPSIS":"540.890","EPOCH":"2022-12-05T22:00:01.999584","REV_AT_EPOCH":"130","TLE_LINE1":"1 53904U 22119U   22339.91668981 -.00013897  00000-0 -85627-3 0  9994","COUNTRY_CODE":"US"},{"ECCENTRICITY":"0.00012190","MEAN_ELEMENT_THEORY":"SGP4","MEAN_MOTION_DOT":"-0.00517366","NORAD_CAT_ID":"53905","CLASSIFICATION_TYPE":"U","CENTER_NAME":"EARTH","TLE_LINE2":"2 53905  53.2166 257.9017 0001219 100.2885 174.0667 15.49747711 11745","RA_OF_ASC_NODE":"257.9017","SEMIMAJOR_AXIS":"6795.600","ARG_OF_PERICENTER":"100.2885","MEAN_ANOMALY":"174.0667","OBJECT_ID":"2022-119V","MEAN_MOTION":"15.49747711","BSTAR":"-0.00977160000000","REF_FRAME":"TEME","MEAN_MOTION_DDOT":"0.0000000000000","OBJECT_NAME":"STARLINK-5003","PERIAPSIS":"416.637","PERIOD":"92.918","OBJECT_TYPE":"PAYLOAD","GP_ID":"219599468","RCS_SIZE":"LARGE","LAUNCH_DATE":"2022-09-24","FILE":"3682172","TIME_SYSTEM":"UTC","SITE":"AFETR","ELEMENT_SET_NO":"999","INCLINATION":"53.2166","EPHEMERIS_TYPE":"0","DECAY_DATE":null,"APOAPSIS":"418.294","EPOCH":"2022-12-05T22:00:01.999584","COUNTRY_CODE":"US","TLE_LINE1":"1 53905U 22119V   22339.91668981 -.00517366  00000-0 -97716-2 0  9996","REV_AT_EPOCH":"1174"},{"MEAN_MOTION":"15.49862876","BSTAR":"-0.01553800000000","OBJECT_ID":"2022-119W","PERIOD":"92.911","REF_FRAME":"TEME","MEAN_MOTION_DDOT":"0.0000000000000","PERIAPSIS":"416.132","OBJECT_NAME":"STARLINK-5054","SEMIMAJOR_AXIS":"6795.264","MEAN_ANOMALY":"139.2523","ARG_OF_PERICENTER":"124.1496","CLASSIFICATION_TYPE":"U","CENTER_NAME":"EARTH","TLE_LINE2":"2 53906  53.2175 257.9276 0001467 124.1496 139.2523 15.49862876  1306","RA_OF_ASC_NODE":"257.9276","ECCENTRICITY":"0.00014670","NORAD_CAT_ID":"53906","MEAN_ELEMENT_THEORY":"SGP4","MEAN_MOTION_DOT":"-0.00808297","EPOCH":"2022-12-05T22:00:01.999584","TLE_LINE1":"1 53906U 22119W   22339.91668981 -.00808297  00000-0 -15538-1 0  9994","COUNTRY_CODE":"US","REV_AT_EPOCH":"130","EPHEMERIS_TYPE":"0","INCLINATION":"53.2175","DECAY_DATE":null,"APOAPSIS":"418.126","FILE":"3682465","SITE":"AFETR","ELEMENT_SET_NO":"999","TIME_SYSTEM":"UTC","GP_ID":"219629794","OBJECT_TYPE":"PAYLOAD","RCS_SIZE":"LARGE","LAUNCH_DATE":"2022-09-24"},{"TLE_LINE1":"1 53907U 22119X   22339.91668981 -.00060904  00000-0 -38366-2 0  9995","COUNTRY_CODE":"US","REV_AT_EPOCH":"1165","EPOCH":"2022-12-05T22:00:01.999584","APOAPSIS":"540.746","INCLINATION":"53.2143","EPHEMERIS_TYPE":"0","DECAY_DATE":null,"ELEMENT_SET_NO":"999","SITE":"AFETR","TIME_SYSTEM":"UTC","FILE":"3682172","RCS_SIZE":"MEDIUM","LAUNCH_DATE":"2022-09-24","GP_ID":"219599018","OBJECT_TYPE":"PAYLOAD","PERIOD":"95.435","MEAN_MOTION_DDOT":"0.0000000000000","REF_FRAME":"TEME","PERIAPSIS":"538.479","OBJECT_NAME":"STARLINK-5063","MEAN_MOTION":"15.08883465","BSTAR":"-0.00383660000000","OBJECT_ID":"2022-119X","MEAN_ANOMALY":"358.7833","ARG_OF_PERICENTER":"67.7382","SEMIMAJOR_AXIS":"6917.748","TLE_LINE2":"2 53907  53.2143 264.7720 0001638  67.7382 358.7833 15.08883465 11651","RA_OF_ASC_NODE":"264.7720","CLASSIFICATION_TYPE":"U","CENTER_NAME":"EARTH","NORAD_CAT_ID":"53907","MEAN_MOTION_DOT":"-0.00060904","MEAN_ELEMENT_THEORY":"SGP4","ECCENTRICITY":"0.00016380"}];
